ONEWEB-0418             
1 50493U 21132AA  25240.91216711  .00000066  00000+0  13489-3 0  9990
2 50493  87.9159  33.4924 0002078 107.1205 253.0155 13.18687144183141
ONEWEB-0419             
1 50494U 21132AB  25240.93042806  .00000041  00000+0  70501-4 0  9997
2 50494  87.9159  33.4899 0001699 106.5909 253.5410 13.18681349183066
ONEWEB-0420             
1 50495U 21132AC  25240.89578074 -.00000005  00000+0 -45089-4 0  9999
2 50495  87.9162  33.5068 0001561  84.9770 275.1540 13.18686374183059
ONEWEB-0421             
1 50496U 21132AD  25240.88917298  .00000829  00000+0  20697-2 0  9992
2 50496  87.9163  33.5021 0002136  89.8051 270.3326 13.18694600183099
ONEWEB-0424             
1 50497U 21132AE  25240.92545697 -.00000092  00000+0 -26543-3 0  9999
2 50497  87.9165  33.4890 0001552 107.5585 252.5717 13.18684673183125
ONEWEB-0426             
1 50498U 21132AF  25240.88588660  .00000000  00000+0 -31588-4 0  9996
2 50498  87.9160  33.4895 0002495  95.1006 265.0411 13.18686369183060
ONEWEB-0427             
1 50499U 21132AG  25240.92381264  .00000050  00000+0  93172-4 0  9994
2 50499  87.9160  33.4714 0001865 100.6829 259.4514 13.18684829183099
ONEWEB-0429             
1 50500U 21132AH  25240.91064662  .00000039  00000+0  66971-4 0  9990
2 50500  87.9161  33.5042 0001623  90.5262 269.6056 13.18687818183060
ONEWEB-0430             
1 50501U 21132AJ  25240.89908185 -.00000002  00000+0 -38185-4 0  9993
2 50501  87.9165  33.5001 0001491  98.3652 261.7649 13.18686662183104
ONEWEB-0432             
1 50502U 21132AK  25240.93060186 -.00001811  00000+0 -46272-2 0  9992
2 50502  87.9153  33.4730 0002111 117.5113 242.6234 13.18697993183068
ONEWEB-0440             
1 50503U 21132AL  25240.91886299  .00000070  00000+0  14593-3 0  9998
2 50503  87.9165  33.4855 0001912  82.3136 277.8213 13.18687937183055
ONEWEB-0450             
1 50504U 21132AM  25240.91242907  .00000060  00000+0  11939-3 0  9991
2 50504  87.9161  33.5124 0001471  89.2190 270.9111 13.18686502183089
ONEWEB-0410             
1 51622U 22012A   25240.93896173  .00000046  00000+0  86222-4 0  9995
2 51622  87.9035  63.9846 0003065 106.2018 253.9451 13.17650106175213
ONEWEB-0411             
1 51623U 22012B   25240.64011546 -.00000129  00000+0 -40517-3 0  9997
2 51623  87.8763  94.6149 0001115  86.9341 273.1914 13.10374318170972
ONEWEB-0415             
1 51624U 22012C   25240.63679382 -.00000320  00000+0 -95432-3 0  9994
2 51624  87.8760  94.6183 0001391  85.3638 274.7648 13.10374338170979
ONEWEB-0416             
1 51625U 22012D   25240.87751472  .00000187  00000+0  49900-3 0  9990
2 51625  87.8761  94.5895 0001668  84.3886 275.7432 13.10375780171044
ONEWEB-0422             
1 51626U 22012E   25240.87314137  .00000126  00000+0  29204-3 0  9992
2 51626  87.9036  64.0037 0001686  65.0298 295.1009 13.17649996175314
