[{"OBJECT_NAME":"ONEWEB-0418","OBJECT_ID":"2021-132AA","EPOCH":"2025-08-28T21:53:31.238304","MEAN_MOTION":13.18687144,"ECCENTRICITY":0.00020788,"INCLINATION":87.9159,"RA_OF_ASC_NODE":33.4924,"ARG_OF_PERICENTER":107.1205,"MEAN_ANOMALY":253.0155,"EPHEMERIS_TYPE":0,"CLASSIFICATION_TYPE":"U","NORAD_CAT_ID":50493,"ELEMENT_SET_NO":999,"REV_AT_EPOCH":18314,"BSTAR":0.00013488604,"MEAN_MOTION_DOT":6.6e-7,"MEAN_MOTION_DDOT":0},{"OBJECT_NAME":"ONEWEB-0419","OBJECT_ID":"2021-132AB","EPOCH":"2025-08-28T22:19:48.984384","MEAN_MOTION":13.18681349,"ECCENTRICITY":0.00016999,"INCLINATION":87.9159,"RA_OF_ASC_NODE":33.4899,"ARG_OF_PERICENTER":106.5909,"MEAN_ANOMALY":253.541,"EPHEMERIS_TYPE":0,"CLASSIFICATION_TYPE":"U","NORAD_CAT_ID":50494,"ELEMENT_SET_NO":999,"REV_AT_EPOCH":18306,"BSTAR":7.050085e-5,"MEAN_MOTION_DOT":4.1e-7,"MEAN_MOTION_DDOT":0},{"OBJECT_NAME":"ONEWEB-0420","OBJECT_ID":"2021-132AC","EPOCH":"2025-08-28T21:29:55.455936","MEAN_MOTION":13.18686374,"ECCENTRICITY":0.00015617,"INCLINATION":87.9162,"RA_OF_ASC_NODE":33.5068,"ARG_OF_PERICENTER":84.977,"MEAN_ANOMALY":275.154,"EPHEMERIS_TYPE":0,"CLASSIFICATION_TYPE":"U","NORAD_CAT_ID":50495,"ELEMENT_SET_NO":999,"REV_AT_EPOCH":18305,"BSTAR":-4.5088839e-5,"MEAN_MOTION_DOT":-5.0e-8,"MEAN_MOTION_DDOT":0},{"OBJECT_NAME":"ONEWEB-0421","OBJECT_ID":"2021-132AD","EPOCH":"2025-08-28T21:20:24.545472","MEAN_MOTION":13.186946,"ECCENTRICITY":0.0002136,"INCLINATION":87.9163,"RA_OF_ASC_NODE":33.5021,"ARG_OF_PERICENTER":89.8051,"MEAN_ANOMALY":270.3326,"EPHEMERIS_TYPE":0,"CLASSIFICATION_TYPE":"U","NORAD_CAT_ID":50496,"ELEMENT_SET_NO":999,"REV_AT_EPOCH":18309,"BSTAR":0.0020696888,"MEAN_MOTION_DOT":8.29e-6,"MEAN_MOTION_DDOT":0},{"OBJECT_NAME":"ONEWEB-0424","OBJECT_ID":"2021-132AE","EPOCH":"2025-08-28T22:12:39.482208","MEAN_MOTION":13.18684673,"ECCENTRICITY":0.00015526,"INCLINATION":87.9165,"RA_OF_ASC_NODE":33.489,"ARG_OF_PERICENTER":107.5585,"MEAN_ANOMALY":252.5717,"EPHEMERIS_TYPE":0,"CLASSIFICATION_TYPE":"U","NORAD_CAT_ID":50497,"ELEMENT_SET_NO":999,"REV_AT_EPOCH":18312,"BSTAR":-0.00026542616,"MEAN_MOTION_DOT":-9.2e-7,"MEAN_MOTION_DDOT":0},{"OBJECT_NAME":"ONEWEB-0426","OBJECT_ID":"2021-132AF","EPOCH":"2025-08-28T21:15:40.602240","MEAN_MOTION":13.18686369,"ECCENTRICITY":0.00024956,"INCLINATION":87.916,"RA_OF_ASC_NODE":33.4895,"ARG_OF_PERICENTER":95.1006,"MEAN_ANOMALY":265.0411,"EPHEMERIS_TYPE":0,"CLASSIFICATION_TYPE":"U","NORAD_CAT_ID":50498,"ELEMENT_SET_NO":999,"REV_AT_EPOCH":18306,"BSTAR":-3.1588249e-5,"MEAN_MOTION_DOT":0,"MEAN_MOTION_DDOT":0},{"OBJECT_NAME":"ONEWEB-0427","OBJECT_ID":"2021-132AG","EPOCH":"2025-08-28T22:10:17.412096","MEAN_MOTION":13.18684829,"ECCENTRICITY":0.00018651,"INCLINATION":87.916,"RA_OF_ASC_NODE":33.4714,"ARG_OF_PERICENTER":100.6829,"MEAN_ANOMALY":259.4514,"EPHEMERIS_TYPE":0,"CLASSIFICATION_TYPE":"U","NORAD_CAT_ID":50499,"ELEMENT_SET_NO":999,"REV_AT_EPOCH":18309,"BSTAR":9.3171856e-5,"MEAN_MOTION_DOT":5.0e-7,"MEAN_MOTION_DDOT":0},{"OBJECT_NAME":"ONEWEB-0429","OBJECT_ID":"2021-132AH","EPOCH":"2025-08-28T21:51:19.867968","MEAN_MOTION":13.18687818,"ECCENTRICITY":0.00016236,"INCLINATION":87.9161,"RA_OF_ASC_NODE":33.5042,"ARG_OF_PERICENTER":90.5262,"MEAN_ANOMALY":269.6056,"EPHEMERIS_TYPE":0,"CLASSIFICATION_TYPE":"U","NORAD_CAT_ID":50500,"ELEMENT_SET_NO":999,"REV_AT_EPOCH":18306,"BSTAR":6.697081e-5,"MEAN_MOTION_DOT":3.9e-7,"MEAN_MOTION_DDOT":0},{"OBJECT_NAME":"ONEWEB-0430","OBJECT_ID":"2021-132AJ","EPOCH":"2025-08-28T21:34:40.671840","MEAN_MOTION":13.18686662,"ECCENTRICITY":0.00014913,"INCLINATION":87.9165,"RA_OF_ASC_NODE":33.5001,"ARG_OF_PERICENTER":98.3652,"MEAN_ANOMALY":261.7649,"EPHEMERIS_TYPE":0,"CLASSIFICATION_TYPE":"U","NORAD_CAT_ID":50501,"ELEMENT_SET_NO":999,"REV_AT_EPOCH":18310,"BSTAR":-3.8185277e-5,"MEAN_MOTION_DOT":-2.0e-8,"MEAN_MOTION_DDOT":0},{"OBJECT_NAME":"ONEWEB-0432","OBJECT_ID":"2021-132AK","EPOCH":"2025-08-28T22:20:04.000704","MEAN_MOTION":13.18697993,"ECCENTRICITY":0.00021117,"INCLINATION":87.9153,"RA_OF_ASC_NODE":33.473,"ARG_OF_PERICENTER":117.5113,"MEAN_ANOMALY":242.6234,"EPHEMERIS_TYPE":0,"CLASSIFICATION_TYPE":"U","NORAD_CAT_ID":50502,"ELEMENT_SET_NO":999,"REV_AT_EPOCH":18306,"BSTAR":-0.0046272248,"MEAN_MOTION_DOT":-1.811e-5,"MEAN_MOTION_DDOT":0},{"OBJECT_NAME":"ONEWEB-0440","OBJECT_ID":"2021-132AL","EPOCH":"2025-08-28T22:03:09.762336","MEAN_MOTION":13.18687937,"ECCENTRICITY":0.00019122,"INCLINATION":87.9165,"RA_OF_ASC_NODE":33.4855,"ARG_OF_PERICENTER":82.3136,"MEAN_ANOMALY":277.8213,"EPHEMERIS_TYPE":0,"CLASSIFICATION_TYPE":"U","NORAD_CAT_ID":50503,"ELEMENT_SET_NO":999,"REV_AT_EPOCH":18305,"BSTAR":0.00014593356,"MEAN_MOTION_DOT":7.0e-7,"MEAN_MOTION_DDOT":0},{"OBJECT_NAME":"ONEWEB-0450","OBJECT_ID":"2021-132AM","EPOCH":"2025-08-28T21:53:53.871648","MEAN_MOTION":13.18686502,"ECCENTRICITY":0.00014719,"INCLINATION":87.9161,"RA_OF_ASC_NODE":33.5124,"ARG_OF_PERICENTER":89.219,"MEAN_ANOMALY":270.9111,"EPHEMERIS_TYPE":0,"CLASSIFICATION_TYPE":"U","NORAD_CAT_ID":50504,"ELEMENT_SET_NO":999,"REV_AT_EPOCH":18308,"BSTAR":0.00011938788,"MEAN_MOTION_DOT":6.0e-7,"MEAN_MOTION_DDOT":0},{"OBJECT_NAME":"ONEWEB-0410","OBJECT_ID":"2022-012A","EPOCH":"2025-08-28T22:32:06.293472","MEAN_MOTION":13.17650106,"ECCENTRICITY":0.00030655,"INCLINATION":87.9035,"RA_OF_ASC_NODE":63.9846,"ARG_OF_PERICENTER":106.2018,"MEAN_ANOMALY":253.9451,"EPHEMERIS_TYPE":0,"CLASSIFICATION_TYPE":"U","NORAD_CAT_ID":51622,"ELEMENT_SET_NO":999,"REV_AT_EPOCH":17521,"BSTAR":8.6222315e-5,"MEAN_MOTION_DOT":4.6e-7,"MEAN_MOTION_DDOT":0},{"OBJECT_NAME":"ONEWEB-0411","OBJECT_ID":"2022-012B","EPOCH":"2025-08-28T15:21:45.975744","MEAN_MOTION":13.10374318,"ECCENTRICITY":0.00011155,"INCLINATION":87.8763,"RA_OF_ASC_NODE":94.6149,"ARG_OF_PERICENTER":86.9341,"MEAN_ANOMALY":273.1914,"EPHEMERIS_TYPE":0,"CLASSIFICATION_TYPE":"U","NORAD_CAT_ID":51623,"ELEMENT_SET_NO":999,"REV_AT_EPOCH":17097,"BSTAR":-0.00040517311,"MEAN_MOTION_DOT":-1.29e-6,"MEAN_MOTION_DDOT":0},{"OBJECT_NAME":"ONEWEB-0415","OBJECT_ID":"2022-012C","EPOCH":"2025-08-28T15:16:58.986048","MEAN_MOTION":13.10374338,"ECCENTRICITY":0.00013913,"INCLINATION":87.876,"RA_OF_ASC_NODE":94.6183,"ARG_OF_PERICENTER":85.3638,"MEAN_ANOMALY":274.7648,"EPHEMERIS_TYPE":0,"CLASSIFICATION_TYPE":"U","NORAD_CAT_ID":51624,"ELEMENT_SET_NO":999,"REV_AT_EPOCH":17097,"BSTAR":-0.00095432445,"MEAN_MOTION_DOT":-3.2e-6,"MEAN_MOTION_DDOT":0},{"OBJECT_NAME":"ONEWEB-0416","OBJECT_ID":"2022-012D","EPOCH":"2025-08-28T21:03:37.271808","MEAN_MOTION":13.1037578,"ECCENTRICITY":0.0001668,"INCLINATION":87.8761,"RA_OF_ASC_NODE":94.5895,"ARG_OF_PERICENTER":84.3886,"MEAN_ANOMALY":275.7432,"EPHEMERIS_TYPE":0,"CLASSIFICATION_TYPE":"U","NORAD_CAT_ID":51625,"ELEMENT_SET_NO":999,"REV_AT_EPOCH":17104,"BSTAR":0.00049900455,"MEAN_MOTION_DOT":1.87e-6,"MEAN_MOTION_DDOT":0},{"OBJECT_NAME":"ONEWEB-0422","OBJECT_ID":"2022-012E","EPOCH":"2025-08-28T20:57:19.414368","MEAN_MOTION":13.17649996,"ECCENTRICITY":0.00016862,"INCLINATION":87.9036,"RA_OF_ASC_NODE":64.0037,"ARG_OF_PERICENTER":65.0298,"MEAN_ANOMALY":295.1009,"EPHEMERIS_TYPE":0,"CLASSIFICATION_TYPE":"U","NORAD_CAT_ID":51626,"ELEMENT_SET_NO":999,"REV_AT_EPOCH":17531,"BSTAR":0.00029203743,"MEAN_MOTION_DOT":1.26e-6,"MEAN_MOTION_DDOT":0}]
